IRIDIUM 8 [+]           
1 24792U 97020A   14259.29092689  .00000387  00000-0  13105-3 0  9742
2 24792  86.4002  18.7290 0002273 112.5724 247.5713 14.34218584909163
IRIDIUM 7 [+]           
1 24793U 97020B   14259.43218216  .00000414  00000-0  14072-3 0  9683
2 24793  86.4006  18.8970 0002248 111.4494 290.3954 14.34224987909187
IRIDIUM 6 [+]           
1 24794U 97020C   14259.41775739  .00000406  00000-0  13802-3 0  7735
2 24794  86.4005  18.8552 0002320 108.4865 251.6583 14.34220052909189
IRIDIUM 5 [+]           
1 24795U 97020D   14259.41143448  .00000042  00000-0  80931-5 0  1832
2 24795  86.4001  18.9422 0001993 111.0901 249.0508 14.34219112909261
IRIDIUM 4 [-]           
1 24796U 97020E   14259.39697419  .00000381  00000-0  12793-3 0  9970
2 24796  86.4000  18.4113 0002297 111.1147 284.0658 14.34694429909212
IRIDIUM 914 [-]         
1 24836U 97030A   14259.33081944  .00000412  00000-0  12894-3 0  5366
2 24836  86.3950  37.8913 0003397 133.5664 276.6639 14.38291025904486
IRIDIUM 12 [+]          
1 24837U 97030B   14259.43228597  .00000283  00000-0  94118-4 0  9826
2 24837  86.3952  50.0906 0002119 110.6083 274.0045 14.34219995902933
IRIDIUM 10 [+]          
1 24839U 97030D   14259.42022676  .00000237  00000-0  77725-4 0  9988
2 24839  86.3951  50.0817 0002180 111.2525 276.6048 14.34220884902942
IRIDIUM 13 [+]          
1 24840U 97030E   14259.37077193  .00000029  00000-0  31715-5 0  9279
2 24840  86.3952  50.2214 0002031 114.8001 279.7230 14.34215762902925
IRIDIUM 16 [-]          
1 24841U 97030F   14259.42823050  .00000429  00000-0  14035-3 0  9422
2 24841  86.4031  50.6765 0001279  50.5133 339.5350 14.36195984903345
IRIDIUM 911 [-]         
1 24842U 97030G   14259.43027215  .00000587  00000-0  16472-3 0  6477
2 24842  86.4454  52.0349 0015274 178.6437 208.8558 14.44330643907881
IRIDIUM 15 [+]          
1 24869U 97034A   14259.49990637  .00000194  00000-0  62158-4 0   632
2 24869  86.3920  81.7894 0002074 106.7320 282.1792 14.34221222899918
IRIDIUM 17 [-]          
1 24870U 97034B   14259.50168097  .00000389  00000-0  12914-3 0  9474
2 24870  86.3922  81.0359 0001658 129.1807 259.2643 14.35293131900032
IRIDIUM 920 [-]         
1 24871U 97034C   14259.44927468  .00000424  00000-0  13101-3 0  5816
2 24871  86.3941  69.6545 0012936  53.5488 335.9770 14.38984134901834
IRIDIUM 18 [+]          
1 24872U 97034D   14259.45626618  .00000203  00000-0  65414-4 0  9624
2 24872  86.3921  82.0176 0002074 103.0479 257.0948 14.34215995899908
IRIDIUM 921 [-]         
1 24873U 97034E   14259.41165543  .00006006  00000-0  41847-3 0   436
2 24873  86.3885 179.5193 0010873  84.6126  53.5597 15.05205563936548
IRIDIUM 26 [-]          
1 24903U 97043A   14259.23066566  .00000373  00000-0  12458-3 0  1084
2 24903  86.3970 315.4354 0002261 106.0335 316.5003 14.34826787893847
IRIDIUM 25 [+]          
1 24904U 97043B   14259.47435837  .00000164  00000-0  51534-4 0    55
2 24904  86.3963 315.4233 0002291 107.5517 252.5929 14.34216924893805
IRIDIUM 46 [+]          
1 24905U 97043C   14259.27773190  .00000358  00000-0  12074-3 0  9937
2 24905  86.3974 315.9666 0002386 108.5448 251.6007 14.34213981893797
IRIDIUM 23 [S]          
1 24906U 97043D   14259.27967235  .00000342  00000-0  11505-3 0   250
2 24906  86.3979 315.4011 0002588 102.7297 300.2476 14.34215857893801
IRIDIUM 22 [+]          
1 24907U 97043E   14259.48005657  .00000354  00000-0  11925-3 0  9657
2 24907  86.3977 315.9739 0002362 109.0448  18.6846 14.34219383893821
DUMMY MASS 1 [-]        
1 24925U 97048A   14259.17016476  .00000338  00000-0  36638-4 0  9177
2 24925  86.3386 146.6670 0006635  15.3365 137.2223 14.84685042922444
DUMMY MASS 2 [-]        
1 24926U 97048B   14259.31939406  .00000311  00000-0  33655-4 0  9101
2 24926  86.3388 147.5484 0007675  19.2049 118.0870 14.84458184922335
IRIDIUM 29 [-]          
1 24944U 97051A   14259.31470478  .00000202  00000-0  64948-4 0  9034
2 24944  86.4012 347.1150 0002339 111.4556 248.6890 14.34332250890378
IRIDIUM 32 [+]          
1 24945U 97051B   14259.41434595  .00000137  00000-0  42023-4 0  9954
2 24945  86.4010 347.1072 0002375 112.0021 248.1428 14.34215540890402
IRIDIUM 33 [-]          
1 24946U 97051C   14259.32280139  .00000249  00000-0  83631-4 0   717
2 24946  86.3926 347.2172 0005777 271.5058 124.4874 14.33183539890097
IRIDIUM 28 [-]          
1 24948U 97051E   14259.39748919  .00000282  00000-0  91896-4 0  8145
2 24948  86.4015 346.8647 0001950 102.2772 303.1358 14.35105094890447
IRIDIUM 30 [+]          
1 24949U 97051F   14259.26844481  .00000412  00000-0  14021-3 0   313
2 24949  86.4010 347.2486 0002412 109.8923 250.2533 14.34219376890360
IRIDIUM 31 [+]          
1 24950U 97051G   14259.40166341  .00000431  00000-0  14699-3 0  9527
2 24950  86.4010 347.1956 0002380 116.5735 243.5705 14.34221509890393
IRIDIUM 19 [+]          
1 24965U 97056A   14259.45580452  .00000415  00000-0  14094-3 0  9303
2 24965  86.4003  18.6615 0002257 112.1117 248.0319 14.34224190888546
IRIDIUM 35 [+]          
1 24966U 97056B   14259.46850557  .00000467  00000-0  15983-3 0  9823
2 24966  86.4002  18.6596 0002249 111.9731 248.1704 14.34215261888520
IRIDIUM 36 [-]          
1 24967U 97056C   14259.36157696  .00000366  00000-0  12134-3 0  9190
2 24967  86.4013  18.4745 0002204 114.3821 269.9870 14.35154075888728
IRIDIUM 37 [+]          
1 24968U 97056D   14259.44314529  .00000474  00000-0  16219-3 0  9547
2 24968  86.4004  18.8273 0002270 113.4133 246.7302 14.34217955888525
IRIDIUM 34 [+]          
1 24969U 97056E   14259.32263934  .00000386  00000-0  13090-3 0  9353
2 24969  86.4004  18.8158 0002264 112.3324 247.8112 14.34219790888509
IRIDIUM 43 [+]          
1 25039U 97069A   14259.44989949  .00000034  00000-0  51900-5 0  9387
2 25039  86.3910  81.9399 0002044 113.5237 246.6173 14.34220062882303
IRIDIUM 41 [+]          
1 25040U 97069B   14259.38315979  .00000197  00000-0  63278-4 0  9377
2 25040  86.3921  81.9441 0002075 101.2477 307.1098 14.34220968882291
IRIDIUM 40 [+]          
1 25041U 97069C   14259.46895437  .00000188  00000-0  59924-4 0  9901
2 25041  86.3919  81.8509 0002065 106.6809 253.4614 14.34221151882326
IRIDIUM 39 [+]          
1 25042U 97069D   14259.47531789  .00000042  00000-0  79466-5 0  9644
2 25042  86.3916  82.1306 0002085 112.8521 247.2895 14.34215984882302
IRIDIUM 38 [-]          
1 25043U 97069E   14259.47185453  .00000394  00000-0  13010-3 0  9212
2 25043  86.3920  80.2137 0001393  74.8560 348.6995 14.35556075882565
IRIDIUM 42 [+]          
1 25077U 97077A   14259.46252490  .00000238  00000-0  78048-4 0  9505
2 25077  86.3921  81.9675 0002061 106.6207 253.5215 14.34228698878169
IRIDIUM 44 [-]          
1 25078U 97077B   14259.45095701  .00000443  00000-0  14129-3 0  4417
2 25078  86.3926  73.9697 0001232  53.9925   7.4416 14.37579139879252
IRIDIUM 45 [+]          
1 25104U 97082A   14259.25533644  .00000377  00000-0  12770-3 0  8908
2 25104  87.0289 327.3564 0002314 100.4325 259.7133 14.34235525876334
IRIDIUM 24 [-]          
1 25105U 97082B   14259.16995412  .00000347  00000-0  10510-3 0  4772
2 25105  86.3910 299.6918 0013180  61.3923 356.5621 14.39320630878263
IRIDIUM 47 [+]          
1 25106U 97082C   14259.29252986  .00000329  00000-0  11036-3 0  8823
2 25106  86.3963 315.4038 0002478 106.7822 297.0411 14.34222914876335
IRIDIUM 49 [+]          
1 25108U 97082E   14259.23934064  .00000332  00000-0  11139-3 0  9103
2 25108  86.3966 315.5021 0002374 107.8241 316.0192 14.34217165876335
IRIDIUM 52 [+]          
1 25169U 98010A   14259.40149059  .00000235  00000-0  76773-4 0  6771
2 25169  86.3956  50.3510 0002116 111.0685 278.3421 14.34218204867768
IRIDIUM 56 [+]          
1 25170U 98010B   14259.47485890  .00000158  00000-0  49425-4 0  7236
2 25170  86.3951  50.4114 0002237 105.8467 334.3752 14.34230239867750
IRIDIUM 54 [+]          
1 25171U 98010C   14259.42118685  .00000234  00000-0  76623-4 0  9076
2 25171  86.3957  50.3581 0002141 111.4746 248.6678 14.34216467867910
IRIDIUM 50 [+]          
1 25172U 98010D   14259.45840613  .00000237  00000-0  77458-4 0  9714
2 25172  86.3956  50.3044 0002152 111.3668 277.1441 14.34219654867756
IRIDIUM 53 [+]          
1 25173U 98010E   14259.40777037  .00000017  00000-0 -84991-6 0  9381
2 25173  86.3956  50.3319 0002152 112.0703 277.0873 14.34215989867755
IRIDIUM 51 [S]          
1 25262U 98018A   14259.42399077  .00000437  00000-0  14914-3 0   576
2 25262  86.4009  18.9499 0002660 107.9544 252.1942 14.34214426867142
IRIDIUM 61 [+]          
1 25263U 98018B   14259.44949038  .00000405  00000-0  13744-3 0  8581
2 25263  86.4005  18.7925 0002261 111.4484 248.6953 14.34218177862853
IRIDIUM 55 [+]          
1 25272U 98019A   14259.38262267  .00000395  00000-0  13400-3 0  8618
2 25272  86.4009 347.0355 0002352 110.6324 249.5124 14.34225360862040
IRIDIUM 57 [+]          
1 25273U 98019B   14259.42703881  .00000416  00000-0  14137-3 0  8933
2 25273  86.4013 347.2794 0002340 110.1893 249.9555 14.34218088862050
IRIDIUM 58 [+]          
1 25274U 98019C   14259.36361243  .00000402  00000-0  13637-3 0  7421
2 25274  86.4016 347.4743 0002399 109.2501 250.8955 14.34219966862049
IRIDIUM 59 [+]          
1 25275U 98019D   14259.36995259  .00000169  00000-0  53153-4 0  4988
2 25275  86.4009 347.3795 0002455 113.3446 246.8008 14.34216445862048
IRIDIUM 60 [+]          
1 25276U 98019E   14259.44606474  .00000426  00000-0  14505-3 0  9614
2 25276  86.4007 347.0062 0002322 110.5445 249.6000 14.34217424862054
IRIDIUM 62 [+]          
1 25285U 98021A   14259.12843328  .00000173  00000-0  54678-4 0  9236
2 25285  86.3923 284.0127 0002405 105.4402 254.7060 14.34218137860963
IRIDIUM 63 [+]          
1 25286U 98021B   14259.43982354  .00000323  00000-0  10833-3 0  9662
2 25286  86.3951 284.1652 0002438 109.6843  25.1429 14.34230998861004
